[{"region":"Тульская область","mun_district":"Плавский","city_type":"д","city":"Рождествено-1","okato":70238865008.0,"oktmo":70638405161.0,"postalcode":301491.0},{"region":"Пермский край","mun_district":"Ильинский","city_type":"д","city":"Кокуй","okato":57220000057.0,"oktmo":57759000441.0,"postalcode":617037.0},{"region":"Тульская область","mun_district":"Алексинский","city_type":"д","city":"Тесницкое","okato":70202855013.0,"oktmo":70706000816.0,"postalcode":301380.0},{"region":"Оренбургская область","mun_district":"Первомайский","city_type":"п","city":"Балабанка","okato":53236811002.0,"oktmo":53636411106.0,"postalcode":461992.0},{"region":"Ивановская область","mun_district":"Кинешемский","city_type":"д","city":"Мухортово","okato":24211810006.0,"oktmo":24611436256.0,"postalcode":155841.0},{"region":"Архангельская область","mun_district":"Холмогорский","city_type":"д","city":"Малое Нижнее","okato":11256824014.0,"oktmo":11656436188.0,"postalcode":164569.0},{"region":"Московская область","mun_district":"Солнечногорск","city_type":"д","city":"Большаково","okato":46471000061.0,"oktmo":46771000161.0,"postalcode":null},{"region":"Костромская область","mun_district":"Октябрьский","city_type":"д","city":"Князевская","okato":34228824009.0,"oktmo":34628424131.0,"postalcode":157790.0},{"region":"Орловская область","mun_district":"Мценский","city_type":"д","city":"Нарышкино","okato":54236818007.0,"oktmo":54636418121.0,"postalcode":null},{"region":"Томская область","mun_district":"Чаинский","city_type":"с","city":"Мушкино","okato":69256000021.0,"oktmo":69656450126.0,"postalcode":636400.0},{"region":"Ярославская область","mun_district":"Некоузский","city_type":"д","city":"Ильинское","okato":78223850028.0,"oktmo":78623406236.0,"postalcode":152750.0},{"region":"Оренбургская область","mun_district":"Домбаровский","city_type":"п","city":"Красночабанский","okato":53217813001.0,"oktmo":53617413101.0,"postalcode":462725.0},{"region":"Тюменская область","mun_district":"Ярковский","city_type":"с","city":"Маранка","okato":71258830001.0,"oktmo":71658430101.0,"postalcode":626060.0},{"region":"Тверская область","mun_district":"Пеновский","city_type":"д","city":"Старина","okato":28246837011.0,"oktmo":28646437146.0,"postalcode":172774.0},{"region":"Курская область","mun_district":"Тимский","city_type":"с","city":"Лисий Колодезь","okato":38242844002.0,"oktmo":38642444106.0,"postalcode":307078.0},{"region":"Ростовская область","mun_district":"Дубовский","city_type":"х","city":"Кудинов","okato":60213805008.0,"oktmo":60613405111.0,"postalcode":347413.0},{"region":"Рязанская область","mun_district":"Касимовский","city_type":"д","city":"Пальчинки","okato":61208853008.0,"oktmo":61608453141.0,"postalcode":391333.0},{"region":"Воронежская область","mun_district":"Петропавловский","city_type":"х","city":"Огарев","okato":20237816002.0,"oktmo":20637416106.0,"postalcode":397689.0},{"region":"Челябинская область","mun_district":"Челябинск","city_type":"п","city":"Водрем 40","okato":75401376000.0,"oktmo":75701370.0,"postalcode":454901.0},{"region":"Калининградская область","mun_district":"Краснознаменский","city_type":"п","city":"Полянское","okato":27218816013.0,"oktmo":27713000201.0,"postalcode":238745.0},{"region":"Курганская область","mun_district":"Катайский","city_type":"г","city":"Катайск","okato":37212501000.0,"oktmo":37612101001.0,"postalcode":null},{"region":"Калужская область","mun_district":"Ферзиковский","city_type":"д","city":"Ладыгино","okato":29244000036.0,"oktmo":29644440136.0,"postalcode":249811.0},{"region":"Псковская область","mun_district":"Гдовский","city_type":"д","city":"Гнилище","okato":58208840012.0,"oktmo":58608440141.0,"postalcode":181623.0},{"region":"Свердловская область","mun_district":"Шалинский","city_type":"п","city":"Пастушный","okato":65257000011.0,"oktmo":65727000236.0,"postalcode":623030.0},{"region":"Смоленская область","mun_district":"Починковский","city_type":"д","city":"Даньково","okato":66233822001.0,"oktmo":66633495181.0,"postalcode":216460.0},{"region":"Марий Эл","mun_district":"Моркинский","city_type":"д","city":"Алдышка","okato":88232551009.0,"oktmo":88632151116.0,"postalcode":425152.0},{"region":"Тверская область","mun_district":"Кимрский","city_type":"д","city":"Путышино","okato":28228826012.0,"oktmo":28628426156.0,"postalcode":171523.0},{"region":"Новгородская область","mun_district":"Пестовский","city_type":"д","city":"Старое Сихино","okato":49232807051.0,"oktmo":49632407331.0,"postalcode":174540.0},{"region":"Нижегородская область","mun_district":"Краснобаковский","city_type":"д","city":"Перехватка","okato":22235824013.0,"oktmo":22635424221.0,"postalcode":606710.0},{"region":"Калининградская область","mun_district":"Багратионовский","city_type":"п","city":"Малое Отважное","okato":27203813003.0,"oktmo":27703000406.0,"postalcode":238434.0},{"region":"Белгородская область","mun_district":"Борисовский","city_type":"с","city":"Теплое","okato":14215888008.0,"oktmo":14615488121.0,"postalcode":309351.0},{"region":"Саха (Якутия)","mun_district":"Якутск","city_type":"г","city":"Якутск","okato":98401000000.0,"oktmo":98701000.0,"postalcode":null},{"region":"Ульяновская область","mun_district":"Мелекесский","city_type":"д","city":"Аврали","okato":73222830002.0,"oktmo":73622430106.0,"postalcode":433540.0},{"region":"Кировская область","mun_district":"Пижанский","city_type":"д","city":"Озеро","okato":33231804002.0,"oktmo":33631404146.0,"postalcode":613391.0},{"region":"Псковская область","mun_district":"Порховский","city_type":"д","city":"Жаборы","okato":58247865006.0,"oktmo":58647460245.0,"postalcode":null},{"region":"Псковская область","mun_district":"Бежаницкий","city_type":"д","city":"Буяни","okato":58204832064.0,"oktmo":58604482185.0,"postalcode":182817.0},{"region":"Свердловская область","mun_district":"Режевской","city_type":"п","city":"Костоусово","okato":65236000002.0,"oktmo":65720000171.0,"postalcode":null},{"region":"Московская область","mun_district":"Пушкино","city_type":"д","city":"Данилово","okato":46458000091.0,"oktmo":46758000191.0,"postalcode":null},{"region":"Орловская область","mun_district":"Новодеревеньковский","city_type":"с","city":"Кологривово","okato":54239804005.0,"oktmo":54639404111.0,"postalcode":303645.0},{"region":"Калужская область","mun_district":"Жуковский","city_type":"с","city":"Оболенское","okato":29213000093.0,"oktmo":29613408191.0,"postalcode":null},{"region":"Новосибирская область","mun_district":"Коченевский","city_type":"п","city":"Семеновский","okato":50223825006.0,"oktmo":50623425126.0,"postalcode":null},{"region":"Смоленская область","mun_district":"Темкинский","city_type":"д","city":"Перетес","okato":66248845009.0,"oktmo":66648440137.0,"postalcode":215340.0},{"region":"Новосибирская область","mun_district":"Баганский","city_type":"с","city":"Славянка","okato":50203807007.0,"oktmo":50603407131.0,"postalcode":632785.0},{"region":"Ивановская область","mun_district":"Вичугский","city_type":"д","city":"Шляйково","okato":24201832027.0,"oktmo":24601446421.0,"postalcode":155310.0},{"region":"Ульяновская область","mun_district":"Сурский","city_type":"с","city":"Чеботаевка","okato":73244875001.0,"oktmo":73644475101.0,"postalcode":null},{"region":"Башкортостан","mun_district":"Мишкинский","city_type":"д","city":"Октябрь","okato":80243880004.0,"oktmo":80643480116.0,"postalcode":452350.0},{"region":"Орловская область","mun_district":"Покровский","city_type":"д","city":"Вышний Туровец","okato":54250810009.0,"oktmo":54650410106.0,"postalcode":303173.0},{"region":"Вологодская область","mun_district":"Шекснинский","city_type":"д","city":"Погорелка","okato":19258812020.0,"oktmo":19658412201.0,"postalcode":162576.0},{"region":"Калужская область","mun_district":"Сухиничский","city_type":"д","city":"Веребьево","okato":29236000078.0,"oktmo":29636436121.0,"postalcode":null},{"region":"Вологодская область","mun_district":"Бабаевский","city_type":"д","city":"Терехова","okato":19205856016.0,"oktmo":19605456256.0,"postalcode":null},{"region":"Ленинградская область","mun_district":"Бокситогорский","city_type":"д","city":"Окулово","okato":41203000199.0,"oktmo":41603155173.0,"postalcode":187625.0},{"region":"Иркутская область","mun_district":"Нижнеудинский","city_type":"д","city":"Нерха","okato":25228000049.0,"oktmo":25628424101.0,"postalcode":665140.0},{"region":"Липецкая область","mun_district":"Добровский","city_type":"с","city":"Порой","okato":42215854001.0,"oktmo":42615454101.0,"postalcode":399155.0},{"region":"Орловская область","mun_district":"Знаменский","city_type":"д","city":"Пешкова","okato":54220820016.0,"oktmo":54620420141.0,"postalcode":null},{"region":"Владимирская область","mun_district":"Александровский","city_type":"д","city":"Пикалево","okato":17205000158.0,"oktmo":17605448306.0,"postalcode":601625.0},{"region":"Ростовская область","mun_district":"Октябрьский","city_type":"п","city":"Староковыльный","okato":60241825004.0,"oktmo":60641425146.0,"postalcode":346476.0},{"region":"Псковская область","mun_district":"Опочецкий","city_type":"д","city":"Броды","okato":58229840003.0,"oktmo":58629408108.0,"postalcode":182356.0},{"region":"Калужская область","mun_district":"Износковский","city_type":"д","city":"Челищево","okato":29215000030.0,"oktmo":29615445146.0,"postalcode":249890.0},{"region":"Чувашия","mun_district":"Батыревский","city_type":"д","city":"Татарские Тимяши","okato":97207870008.0,"oktmo":97607470136.0,"postalcode":429358.0},{"region":"Татарстан","mun_district":"Верхнеуслонский","city_type":"с","city":"Лесные Моркваши","okato":92220000046.0,"oktmo":92620460106.0,"postalcode":422570.0},{"region":"Кировская область","mun_district":"Кирово-Чепецкий","city_type":"д","city":"Сорвиха","okato":33218820023.0,"oktmo":33618420201.0,"postalcode":613012.0},{"region":"Архангельская область","mun_district":"Вельский","city_type":"д","city":"Рогово","okato":11205836034.0,"oktmo":11605436266.0,"postalcode":165133.0},{"region":"Ростовская область","mun_district":"Миллеровский","city_type":"х","city":"Редкодуб","okato":60232860014.0,"oktmo":60632460156.0,"postalcode":346121.0},{"region":"Хакасия","mun_district":"Усть-Абаканский","city_type":"д","city":"Курганная","okato":95230860002.0,"oktmo":95630460106.0,"postalcode":655137.0},{"region":"Карелия","mun_district":"Лахденпохский","city_type":"п","city":"Ламминкюля","okato":86218000018.0,"oktmo":86618450131.0,"postalcode":186720.0},{"region":"Вологодская область","mun_district":"Харовский","city_type":"д","city":"Шиханиха","okato":19252828042.0,"oktmo":19652412327.0,"postalcode":162275.0},{"region":"Пермский край","mun_district":"Очерский","city_type":"д","city":"Пономари","okato":57244000053.0,"oktmo":57762000381.0,"postalcode":617160.0},{"region":"Рязанская область","mun_district":"Рязанский","city_type":"д","city":"Писцово","okato":61234833004.0,"oktmo":61634433151.0,"postalcode":390546.0},{"region":"Башкортостан","mun_district":"Иглинский","city_type":"с","city":"Кудеевский","okato":80228832001.0,"oktmo":80628432101.0,"postalcode":452420.0},{"region":"Кировская область","mun_district":"Юрьянский","city_type":"д","city":"Заречевщина","okato":33249855003.0,"oktmo":33649455136.0,"postalcode":613611.0},{"region":"Смоленская область","mun_district":"Руднянский","city_type":"д","city":"Бельское","okato":66238875003.0,"oktmo":66638475116.0,"postalcode":216783.0},{"region":"Вологодская область","mun_district":"Кичменгско-Городецкий","city_type":"п","city":"Гаражи","okato":19230820006.0,"oktmo":19630408231.0,"postalcode":161412.0},{"region":"Саратовская область","mun_district":"Аркадакский","city_type":"п","city":"Красный","okato":63203501000.0,"oktmo":63603101001.0,"postalcode":412210.0},{"region":"Татарстан","mun_district":"Набережные Челны","city_type":"мкр","city":"67а","okato":92430000000.0,"oktmo":92730000.0,"postalcode":423825.0},{"region":"Тульская область","mun_district":"Дубенский","city_type":"с","city":"Шатово","okato":70218820009.0,"oktmo":70618405216.0,"postalcode":301153.0},{"region":"Пермский край","mun_district":"Верещагинский","city_type":"д","city":"Старый Посад","okato":57212000123.0,"oktmo":57712000751.0,"postalcode":617101.0},{"region":"Московская область","mun_district":"Истра","city_type":"д","city":"Еремеево","okato":46433000193.0,"oktmo":46733000293.0,"postalcode":null},{"region":"Архангельская область","mun_district":"Устьянский","city_type":"д","city":"Мотоусовская","okato":11254836028.0,"oktmo":11654436296.0,"postalcode":165236.0},{"region":"Кемеровская область","mun_district":"Ижморский","city_type":"с","city":"Летяжка","okato":32204832002.0,"oktmo":32504000246.0,"postalcode":652138.0},{"region":"Костромская область","mun_district":"Красносельский","city_type":"п","city":"Кирпичного завода","okato":34216820010.0,"oktmo":34616420141.0,"postalcode":157943.0},{"region":"Архангельская область","mun_district":"Приморский","city_type":"д","city":"Нижние Валдушки","okato":11252808018.0,"oktmo":11652408186.0,"postalcode":null},{"region":"Смоленская область","mun_district":"Хиславичский","city_type":"д","city":"Анновка","okato":66252875002.0,"oktmo":66652422102.0,"postalcode":216638.0},{"region":"Новгородская область","mun_district":"Хвойнинский","city_type":"д","city":"Кривуха","okato":49245822012.0,"oktmo":49645422156.0,"postalcode":174593.0},{"region":"Крым","mun_district":"Джанкойский","city_type":"с","city":"Марьино","okato":35211000143.0,"oktmo":35611419111.0,"postalcode":296152.0},{"region":"Дагестан","mun_district":"Табасаранский","city_type":"с","city":"Татиль","okato":82248864002.0,"oktmo":82648464106.0,"postalcode":368660.0},{"region":"Краснодарский край","mun_district":"Курганинский","city_type":"ст-ца","city":"Темиргоевская","okato":3227825001.0,"oktmo":3627425101.0,"postalcode":352403.0},{"region":"Курская область","mun_district":"Дмитриевский","city_type":"п","city":"Лобановский","okato":38208838000.0,"oktmo":38608438161.0,"postalcode":307515.0},{"region":"Псковская область","mun_district":"Опочецкий","city_type":"д","city":"Шелухи","okato":58229820121.0,"oktmo":58629410572.0,"postalcode":182353.0},{"region":"Удмуртия","mun_district":"Якшур-Бодьинский","city_type":"д","city":"Чернушка","okato":94250847003.0,"oktmo":94650447126.0,"postalcode":427110.0},{"region":"Омская область","mun_district":"Горьковский","city_type":"д","city":"Новооболонь","okato":52209822007.0,"oktmo":52609422126.0,"postalcode":646611.0},{"region":"Саха (Якутия)","mun_district":"Олекминский","city_type":"с","city":"Иннях","okato":98241815002.0,"oktmo":98641415106.0,"postalcode":678126.0},{"region":"Мордовия","mun_district":"Темниковский","city_type":"д","city":"Татарское Акашево","okato":89249888007.0,"oktmo":89649488126.0,"postalcode":431241.0},{"region":"Челябинская область","mun_district":"Увельский","city_type":"с","city":"Красносельское","okato":75255833001.0,"oktmo":75655433101.0,"postalcode":null},{"region":"Челябинская область","mun_district":"Троицкий","city_type":"п","city":"Херсонский","okato":75254840006.0,"oktmo":75654440126.0,"postalcode":457118.0},{"region":"Крым","mun_district":"Красноперекопский","city_type":"с","city":"Сватово","okato":35223000096.0,"oktmo":35623404111.0,"postalcode":296050.0},{"region":"Мордовия","mun_district":"Ковылкинский","city_type":"с","city":"Старое Мамангино","okato":89229806005.0,"oktmo":89629406136.0,"postalcode":431325.0},{"region":"Тверская область","mun_district":"Андреаполь","city_type":"д","city":"Заселица","okato":28202858006.0,"oktmo":28502000362.0,"postalcode":172814.0},{"region":"Кировская область","mun_district":"Уржумский","city_type":"д","city":"Платуны","okato":33241864001.0,"oktmo":33641464101.0,"postalcode":613545.0},{"region":"Ивановская область","mun_district":"Пучежский","city_type":"д","city":"Сивково","okato":24221816053.0,"oktmo":24621416346.0,"postalcode":155360.0},{"region":"Брянская область","mun_district":"Суземский","city_type":"п","city":"Ильинский","okato":15252551014.0,"oktmo":15652151166.0,"postalcode":242190.0}]